[{"OBJECT_NAME":"HST","OBJECT_ID":"1990-037B","EPOCH":"2026-03-09T03:50:04.164288","MEAN_MOTION":15.29473555,"ECCENTRICITY":0.00018372,"INCLINATION":28.4717,"RA_OF_ASC_NODE":43.6133,"ARG_OF_PERICENTER":120.9992,"MEAN_ANOMALY":239.0785,"EPHEMERIS_TYPE":0,"CLASSIFICATION_TYPE":"U","NORAD_CAT_ID":20580,"ELEMENT_SET_NO":999,"REV_AT_EPOCH":77323,"BSTAR":0.0003002261,"MEAN_MOTION_DOT":9.063e-5,"MEAN_MOTION_DDOT":0},{"OBJECT_NAME":"STARLINK-34205","OBJECT_ID":"2025-144T","EPOCH":"2026-03-09T13:44:31.586784","MEAN_MOTION":15.30199271,"ECCENTRICITY":0.000114,"INCLINATION":53.16,"RA_OF_ASC_NODE":181.6051,"ARG_OF_PERICENTER":84.7682,"MEAN_ANOMALY":275.3449,"EPHEMERIS_TYPE":0,"CLASSIFICATION_TYPE":"U","NORAD_CAT_ID":64741,"ELEMENT_SET_NO":999,"REV_AT_EPOCH":3969,"BSTAR":0.0012715,"MEAN_MOTION_DOT":0.0003749,"MEAN_MOTION_DDOT":0}]
